{"type": "FeatureCollection", "features": [ {"type": "Feature", "properties": {"norad_id": 34375, "name": "IRIDIUM 33 DEB", "group": "iridium-33-debris", "lat": 19.42780395360249, "lon": -171.89709561779384, "alt_km": 888.3161268145086, "timestamp": "2025-12-02T10:50:47.660026+00:00", "meta": {"OBJECT_NAME": "IRIDIUM 33 DEB", "OBJECT_ID": "1997-051FT", "EPOCH": "2025-12-02T01:18:17.719200", "MEAN_MOTION": 14.17961976, "ECCENTRICITY": 0.0102366, "INCLINATION": 86.4333, "RA_OF_ASC_NODE": 187.0026, "ARG_OF_PERICENTER": 160.3927, "MEAN_ANOMALY": 351.7564, "EPHEMERIS_TYPE": 0, "CLASSIFICATION_TYPE": "U", "NORAD_CAT_ID": 34375, "ELEMENT_SET_NO": 999, "REV_AT_EPOCH": 86560, "BSTAR": 0.00046831, "MEAN_MOTION_DOT": 1.028e-05, "MEAN_MOTION_DDOT": 0}, "tle": {"line1": "1 34375U 97051FT  25336.05437175  .00001028  00000+0  46831-3 0  9990", "line2": "2 34375  86.4333 187.0026 0102366 160.3927 351.7564 14.17961976865608"}}, "geometry": {"type": "Point", "coordinates": [-171.89709561779384, 19.42780395360249]}}, {"type": "Feature", "properties": {"norad_id": 34376, "name": "IRIDIUM 33 DEB", "group": "iridium-33-debris", "lat": -7.959474106553056, "lon": -168.31723362477177, "alt_km": 671.957717095117, "timestamp": "2025-12-02T10:50:47.660037+00:00", "meta": {"OBJECT_NAME": "IRIDIUM 33 DEB", "OBJECT_ID": "1997-051FU", "EPOCH": "2025-12-02T03:25:12.488160", "MEAN_MOTION": 14.62320389, "ECCENTRICITY": 0.0025952, "INCLINATION": 86.2999, "RA_OF_ASC_NODE": 11.3033, "ARG_OF_PERICENTER": 203.051, "MEAN_ANOMALY": 156.9539, "EPHEMERIS_TYPE": 0, "CLASSIFICATION_TYPE": "U", "NORAD_CAT_ID": 34376, "ELEMENT_SET_NO": 999, "REV_AT_EPOCH": 87852, "BSTAR": 0.0016838, "MEAN_MOTION_DOT": 8.565e-05, "MEAN_MOTION_DDOT": 0}, "tle": {"line1": "1 34376U 97051FU  25336.14250565  .00008565  00000+0  16838-2 0  9993", "line2": "2 34376  86.2999  11.3033 0025952 203.0510 156.9539 14.62320389878529"}}, "geometry": {"type": "Point", "coordinates": [-168.31723362477177, -7.959474106553056]}}, {"type": "Feature", "properties": {"norad_id": 34486, "name": "IRIDIUM 33 DEB", "group": "iridium-33-debris", "lat": -83.82429684150546, "lon": -127.59689747217082, "alt_km": 593.8991837699095, "timestamp": "2025-12-02T10:50:47.660047+00:00", "meta": {"OBJECT_NAME": "IRIDIUM 33 DEB", "OBJECT_ID": "1997-051GB", "EPOCH": "2025-12-02T03:28:52.307904", "MEAN_MOTION": 14.95027296, "ECCENTRICITY": 0.0012683, "INCLINATION": 86.3954, "RA_OF_ASC_NODE": 16.9124, "ARG_OF_PERICENTER": 147.5491, "MEAN_ANOMALY": 266.6737, "EPHEMERIS_TYPE": 0, "CLASSIFICATION_TYPE": "U", "NORAD_CAT_ID": 34486, "ELEMENT_SET_NO": 999, "REV_AT_EPOCH": 88828, "BSTAR": 0.0024553, "MEAN_MOTION_DOT": 0.00026994, "MEAN_MOTION_DDOT": 0}, "tle": {"line1": "1 34486U 97051GB  25336.14504986  .00026994  00000+0  24553-2 0  9993", "line2": "2 34486  86.3954  16.9124 0012683 147.5491 266.6737 14.95027296888282"}}, "geometry": {"type": "Point", "coordinates": [-127.59689747217082, -83.82429684150546]}}, {"type": "Feature", "properties": {"norad_id": 34487, "name": "IRIDIUM 33 DEB", "group": "iridium-33-debris", "lat": 51.07230031294143, "lon": 21.345991682852304, "alt_km": 750.9097687170615, "timestamp": "2025-12-02T10:50:47.660058+00:00", "meta": {"OBJECT_NAME": "IRIDIUM 33 DEB", "OBJECT_ID": "1997-051GC", "EPOCH": "2025-12-01T15:14:00.920832", "MEAN_MOTION": 14.43192153, "ECCENTRICITY": 0.00317068, "INCLINATION": 86.3445, "RA_OF_ASC_NODE": 17.1579, "ARG_OF_PERICENTER": 163.7221, "MEAN_ANOMALY": 324.8136, "EPHEMERIS_TYPE": 0, "CLASSIFICATION_TYPE": "U", "NORAD_CAT_ID": 34487, "ELEMENT_SET_NO": 999, "REV_AT_EPOCH": 88088, "BSTAR": 0.0002149908, "MEAN_MOTION_DOT": 7.47e-06, "MEAN_MOTION_DDOT": 0}, "tle": {"line1": "1 34487U 97051GC  25335.63473288  .00000747  00000+0  21499-3 0  9992", "line2": "2 34487  86.3445  17.1579 0031706 163.7221 324.8136 14.43192153880889"}}, "geometry": {"type": "Point", "coordinates": [21.345991682852304, 51.07230031294143]}}, {"type": "Feature", "properties": {"norad_id": 34488, "name": "IRIDIUM 33 DEB", "group": "iridium-33-debris", "lat": 40.054264777345445, "lon": 127.79748424467164, "alt_km": 482.5561220175032, "timestamp": "2025-12-02T10:50:47.660069+00:00", "meta": {"OBJECT_NAME": "IRIDIUM 33 DEB", "OBJECT_ID": "1997-051GD", "EPOCH": "2025-12-01T09:03:02.520864", "MEAN_MOTION": 15.25513419, "ECCENTRICITY": 0.00159486, "INCLINATION": 86.3247, "RA_OF_ASC_NODE": 311.4245, "ARG_OF_PERICENTER": 69.089, "MEAN_ANOMALY": 291.2062, "EPHEMERIS_TYPE": 0, "CLASSIFICATION_TYPE": "U", "NORAD_CAT_ID": 34488, "ELEMENT_SET_NO": 999, "REV_AT_EPOCH": 89066, "BSTAR": 0.005113685, "MEAN_MOTION_DOT": 0.00132074, "MEAN_MOTION_DDOT": 0}, "tle": {"line1": "1 34488U 97051GD  25335.37711251  .00132074  00000+0  51137-2 0  9999", "line2": "2 34488  86.3247 311.4245 0015948  69.0890 291.2062 15.25513419890665"}}, "geometry": {"type": "Point", "coordinates": [127.79748424467164, 40.054264777345445]}}, {"type": "Feature", "properties": {"norad_id": 34492, "name": "IRIDIUM 33 DEB", "group": "iridium-33-debris", "lat": 76.26013681042097, "lon": -6.588556424148051, "alt_km": 932.6879343327728, "timestamp": "2025-12-02T10:50:47.660079+00:00", "meta": {"OBJECT_NAME": "IRIDIUM 33 DEB", "OBJECT_ID": "1997-051GH", "EPOCH": "2025-12-01T11:37:20.497728", "MEAN_MOTION": 14.25192114, "ECCENTRICITY": 0.01904541, "INCLINATION": 86.4698, "RA_OF_ASC_NODE": 339.1786, "ARG_OF_PERICENTER": 274.674, "MEAN_ANOMALY": 239.6935, "EPHEMERIS_TYPE": 0, "CLASSIFICATION_TYPE": "U", "NORAD_CAT_ID": 34492, "ELEMENT_SET_NO": 999, "REV_AT_EPOCH": 84898, "BSTAR": 0.0079818839, "MEAN_MOTION_DOT": 0.00022727, "MEAN_MOTION_DDOT": 0}, "tle": {"line1": "1 34492U 97051GH  25335.48426502  .00022727  00000+0  79819-2 0  9998", "line2": "2 34492  86.4698 339.1786 0190454 274.6740 239.6935 14.25192114848989"}}, "geometry": {"type": "Point", "coordinates": [-6.588556424148051, 76.26013681042097]}}, {"type": "Feature", "properties": {"norad_id": 34497, "name": "IRIDIUM 33 DEB", "group": "iridium-33-debris", "lat": -62.29111098833419, "lon": -116.08550645690677, "alt_km": 844.7577825454655, "timestamp": "2025-12-02T10:50:47.660089+00:00", "meta": {"OBJECT_NAME": "IRIDIUM 33 DEB", "OBJECT_ID": "1997-051GN", "EPOCH": "2025-12-01T05:14:48.727392", "MEAN_MOTION": 14.27398963, "ECCENTRICITY": 0.0080081, "INCLINATION": 86.2784, "RA_OF_ASC_NODE": 57.3223, "ARG_OF_PERICENTER": 16.9295, "MEAN_ANOMALY": 12.6117, "EPHEMERIS_TYPE": 0, "CLASSIFICATION_TYPE": "U", "NORAD_CAT_ID": 34497, "ELEMENT_SET_NO": 999, "REV_AT_EPOCH": 86719, "BSTAR": 0.00069242, "MEAN_MOTION_DOT": 1.774e-05, "MEAN_MOTION_DDOT": 0}, "tle": {"line1": "1 34497U 97051GN  25335.21861953  .00001774  00000+0  69242-3 0  9996", "line2": "2 34497  86.2784  57.3223 0080081  16.9295  12.6117 14.27398963867196"}}, "geometry": {"type": "Point", "coordinates": [-116.08550645690677, -62.29111098833419]}}, {"type": "Feature", "properties": {"norad_id": 34508, "name": "IRIDIUM 33 DEB", "group": "iridium-33-debris", "lat": -2.40483772889101, "lon": 106.85026055107637, "alt_km": 808.5266808776796, "timestamp": "2025-12-02T10:50:47.660100+00:00", "meta": {"OBJECT_NAME": "IRIDIUM 33 DEB", "OBJECT_ID": "1997-051GZ", "EPOCH": "2025-12-01T19:49:48.096768", "MEAN_MOTION": 14.38250778, "ECCENTRICITY": 0.006538, "INCLINATION": 86.3693, "RA_OF_ASC_NODE": 107.2683, "ARG_OF_PERICENTER": 208.4513, "MEAN_ANOMALY": 151.3111, "EPHEMERIS_TYPE": 0, "CLASSIFICATION_TYPE": "U", "NORAD_CAT_ID": 34508, "ELEMENT_SET_NO": 999, "REV_AT_EPOCH": 87152, "BSTAR": 0.0017383, "MEAN_MOTION_DOT": 5.435e-05, "MEAN_MOTION_DDOT": 0}, "tle": {"line1": "1 34508U 97051GZ  25335.82625112  .00005435  00000+0  17383-2 0  9997", "line2": "2 34508  86.3693 107.2683 0065380 208.4513 151.3111 14.38250778871520"}}, "geometry": {"type": "Point", "coordinates": [106.85026055107637, -2.40483772889101]}}, {"type": "Feature", "properties": {"norad_id": 34521, "name": "IRIDIUM 33 DEB", "group": "iridium-33-debris", "lat": -27.34917828544371, "lon": 33.20063921501258, "alt_km": 687.9342316462735, "timestamp": "2025-12-02T10:50:47.660111+00:00", "meta": {"OBJECT_NAME": "IRIDIUM 33 DEB", "OBJECT_ID": "1997-051HN", "EPOCH": "2025-12-02T04:24:22.923360", "MEAN_MOTION": 14.63207931, "ECCENTRICITY": 0.0001245, "INCLINATION": 86.3815, "RA_OF_ASC_NODE": 35.1943, "ARG_OF_PERICENTER": 303.8096, "MEAN_ANOMALY": 56.2997, "EPHEMERIS_TYPE": 0, "CLASSIFICATION_TYPE": "U", "NORAD_CAT_ID": 34521, "ELEMENT_SET_NO": 999, "REV_AT_EPOCH": 88318, "BSTAR": 0.0011054, "MEAN_MOTION_DOT": 5.711e-05, "MEAN_MOTION_DDOT": 0}, "tle": {"line1": "1 34521U 97051HN  25336.18359865  .00005711  00000+0  11054-2 0  9997", "line2": "2 34521  86.3815  35.1943 0001245 303.8096  56.2997 14.63207931883186"}}, "geometry": {"type": "Point", "coordinates": [33.20063921501258, -27.34917828544371]}}, {"type": "Feature", "properties": {"norad_id": 34525, "name": "IRIDIUM 33 DEB", "group": "iridium-33-debris", "lat": -6.623297522396838, "lon": -128.3439392809931, "alt_km": 751.249464138652, "timestamp": "2025-12-02T10:50:47.660121+00:00", "meta": {"OBJECT_NAME": "IRIDIUM 33 DEB", "OBJECT_ID": "1997-051HS", "EPOCH": "2025-12-01T23:08:06.681408", "MEAN_MOTION": 14.42860368, "ECCENTRICITY": 0.0006409, "INCLINATION": 86.3737, "RA_OF_ASC_NODE": 51.4423, "ARG_OF_PERICENTER": 119.8566, "MEAN_ANOMALY": 53.5207, "EPHEMERIS_TYPE": 0, "CLASSIFICATION_TYPE": "U", "NORAD_CAT_ID": 34525, "ELEMENT_SET_NO": 999, "REV_AT_EPOCH": 87932, "BSTAR": 0.00045935, "MEAN_MOTION_DOT": 1.553e-05, "MEAN_MOTION_DDOT": 0}, "tle": {"line1": "1 34525U 97051HS  25335.96396622  .00001553  00000+0  45935-3 0  9994", "line2": "2 34525  86.3737  51.4423 0006409 119.8566  53.5207 14.42860368879322"}}, "geometry": {"type": "Point", "coordinates": [-128.3439392809931, -6.623297522396838]}}]}